start=new Date('2022-11-04T00:00:00.000Z').valueOf();
sats=[{"ELEMENT_SET_NO":"999","MEAN_ANOMALY":"212.4143","PERIAPSIS":"415.410","TLE_LINE1":"1 53775U 22111C   22307.91667824 -.00782691  00000-0 -14869-1 0  9995","MEAN_MOTION_DOT":"-0.00782691","OBJECT_TYPE":"PAYLOAD","CENTER_NAME":"EARTH","BSTAR":"-0.01486900000000","RA_OF_ASC_NODE":"1.6160","NORAD_CAT_ID":"53775","SEMIMAJOR_AXIS":"6794.524","REF_FRAME":"TEME","REV_AT_EPOCH":"130","RCS_SIZE":"LARGE","ECCENTRICITY":"0.00014410","MEAN_ELEMENT_THEORY":"SGP4","CLASSIFICATION_TYPE":"U","OBJECT_ID":"2022-111C","PERIOD":"92.896","FILE":"3644033","EPHEMERIS_TYPE":"0","ARG_OF_PERICENTER":"44.4673","OBJECT_NAME":"STARLINK-4722","APOAPSIS":"417.368","SITE":"AFETR","DECAY_DATE":null,"COUNTRY_CODE":"US","TLE_LINE2":"2 53775  53.2173   1.6160 0001441  44.4673 212.4143 15.50116090  1301","MEAN_MOTION":"15.50116090","GP_ID":"216863691","INCLINATION":"53.2173","EPOCH":"2022-11-03T22:00:00.999936","TIME_SYSTEM":"UTC","MEAN_MOTION_DDOT":"0.0000000000000","LAUNCH_DATE":"2022-09-11"},{"CENTER_NAME":"EARTH","PERIAPSIS":"493.906","OBJECT_TYPE":"PAYLOAD","MEAN_MOTION_DOT":"-0.01151750","TLE_LINE1":"1 53776U 22111D   22307.91667824 -.01151750  00000-0 -51406-1 0  9991","ELEMENT_SET_NO":"999","MEAN_ANOMALY":"300.6470","RCS_SIZE":"LARGE","REV_AT_EPOCH":"130","ECCENTRICITY":"0.00013330","MEAN_ELEMENT_THEORY":"SGP4","REF_FRAME":"TEME","RA_OF_ASC_NODE":"4.3074","BSTAR":"-0.05140600000000","NORAD_CAT_ID":"53776","SEMIMAJOR_AXIS":"6872.957","TLE_LINE2":"2 53776  53.2175   4.3074 0001333  52.7881 300.6470 15.23657448  1301","COUNTRY_CODE":"US","DECAY_DATE":null,"MEAN_MOTION":"15.23657448","SITE":"AFETR","APOAPSIS":"495.738","ARG_OF_PERICENTER":"52.7881","OBJECT_NAME":"STARLINK-4708","EPHEMERIS_TYPE":"0","CLASSIFICATION_TYPE":"U","FILE":"3644033","PERIOD":"94.509","OBJECT_ID":"2022-111D","TIME_SYSTEM":"UTC","MEAN_MOTION_DDOT":"0.0000000000000","LAUNCH_DATE":"2022-09-11","EPOCH":"2022-11-03T22:00:00.999936","INCLINATION":"53.2175","GP_ID":"216863866"},{"GP_ID":"216864629","INCLINATION":"53.2168","EPOCH":"2022-11-03T22:00:00.999936","LAUNCH_DATE":"2022-09-11","MEAN_MOTION_DDOT":"0.0000000000000","TIME_SYSTEM":"UTC","FILE":"3644033","PERIOD":"92.907","OBJECT_ID":"2022-111E","CLASSIFICATION_TYPE":"U","SITE":"AFETR","APOAPSIS":"418.173","ARG_OF_PERICENTER":"39.9088","OBJECT_NAME":"STARLINK-4664","EPHEMERIS_TYPE":"0","MEAN_MOTION":"15.49938428","COUNTRY_CODE":"US","TLE_LINE2":"2 53777  53.2168   1.6041 0001861  39.9088 222.9796 15.49938428  1305","DECAY_DATE":null,"SEMIMAJOR_AXIS":"6795.043","NORAD_CAT_ID":"53777","BSTAR":"0.00032829000000","RA_OF_ASC_NODE":"1.6041","REF_FRAME":"TEME","ECCENTRICITY":"0.00018610","MEAN_ELEMENT_THEORY":"SGP4","REV_AT_EPOCH":"130","RCS_SIZE":"LARGE","MEAN_ANOMALY":"222.9796","ELEMENT_SET_NO":"999","OBJECT_TYPE":"PAYLOAD","TLE_LINE1":"1 53777U 22111E   22307.91667824  .00018259  00000-0  32829-3 0  9995","MEAN_MOTION_DOT":"0.00018259","PERIAPSIS":"415.643","CENTER_NAME":"EARTH"},{"COUNTRY_CODE":"US","TLE_LINE2":"2 53778  53.2175   4.0918 0001558  46.5091  56.1448 15.26608947  1301","DECAY_DATE":null,"MEAN_MOTION":"15.26608947","SITE":"AFETR","APOAPSIS":"487.030","OBJECT_NAME":"STARLINK-4709","EPHEMERIS_TYPE":"0","ARG_OF_PERICENTER":"46.5091","CLASSIFICATION_TYPE":"U","FILE":"3644033","OBJECT_ID":"2022-111F","PERIOD":"94.327","TIME_SYSTEM":"UTC","MEAN_MOTION_DDOT":"0.0000000000000","LAUNCH_DATE":"2022-09-11","EPOCH":"2022-11-03T22:00:00.999936","INCLINATION":"53.2175","GP_ID":"216864734","CENTER_NAME":"EARTH","PERIAPSIS":"484.891","OBJECT_TYPE":"PAYLOAD","TLE_LINE1":"1 53778U 22111F   22307.91667824 -.01135197  00000-0 -46956-1 0  9994","MEAN_MOTION_DOT":"-0.01135197","ELEMENT_SET_NO":"999","MEAN_ANOMALY":"56.1448","REV_AT_EPOCH":"130","RCS_SIZE":"LARGE","MEAN_ELEMENT_THEORY":"SGP4","ECCENTRICITY":"0.00015580","REF_FRAME":"TEME","BSTAR":"-0.04695600000000","RA_OF_ASC_NODE":"4.0918","SEMIMAJOR_AXIS":"6864.095","NORAD_CAT_ID":"53778"},{"RA_OF_ASC_NODE":"1.5990","BSTAR":"0.00052659000000","NORAD_CAT_ID":"53779","SEMIMAJOR_AXIS":"6795.256","REF_FRAME":"TEME","REV_AT_EPOCH":"130","RCS_SIZE":"LARGE","ECCENTRICITY":"0.00015370","MEAN_ELEMENT_THEORY":"SGP4","ELEMENT_SET_NO":"999","MEAN_ANOMALY":"222.8058","PERIAPSIS":"416.077","TLE_LINE1":"1 53779U 22111G   22307.91667824  .00029527  00000-0  52659-3 0  9990","MEAN_MOTION_DOT":"0.00029527","OBJECT_TYPE":"PAYLOAD","CENTER_NAME":"EARTH","GP_ID":"216864110","INCLINATION":"53.2167","EPOCH":"2022-11-03T22:00:00.999936","TIME_SYSTEM":"UTC","LAUNCH_DATE":"2022-09-11","MEAN_MOTION_DDOT":"0.0000000000000","CLASSIFICATION_TYPE":"U","PERIOD":"92.911","OBJECT_ID":"2022-111G","FILE":"3644033","EPHEMERIS_TYPE":"0","ARG_OF_PERICENTER":"43.2869","OBJECT_NAME":"STARLINK-4706","APOAPSIS":"418.166","SITE":"AFETR","DECAY_DATE":null,"TLE_LINE2":"2 53779  53.2167   1.5990 0001537  43.2869 222.8058 15.49865463  1301","COUNTRY_CODE":"US","MEAN_MOTION":"15.49865463"},{"GP_ID":"216864285","INCLINATION":"53.2166","EPOCH":"2022-11-03T22:00:00.999936","LAUNCH_DATE":"2022-09-11","MEAN_MOTION_DDOT":"0.0000000000000","TIME_SYSTEM":"UTC","OBJECT_ID":"2022-111H","PERIOD":"92.901","FILE":"3644033","CLASSIFICATION_TYPE":"U","ARG_OF_PERICENTER":"43.9457","EPHEMERIS_TYPE":"0","OBJECT_NAME":"STARLINK-4678","SITE":"AFETR","APOAPSIS":"417.712","MEAN_MOTION":"15.50032612","DECAY_DATE":null,"COUNTRY_CODE":"US","TLE_LINE2":"2 53780  53.2166   1.6110 0001588  43.9457 215.9525 15.50032612  1309","NORAD_CAT_ID":"53780","SEMIMAJOR_AXIS":"6794.768","BSTAR":"-0.00777940000000","RA_OF_ASC_NODE":"1.6110","REF_FRAME":"TEME","ECCENTRICITY":"0.00015880","MEAN_ELEMENT_THEORY":"SGP4","RCS_SIZE":"LARGE","REV_AT_EPOCH":"130","MEAN_ANOMALY":"215.9525","ELEMENT_SET_NO":"999","MEAN_MOTION_DOT":"-0.00421265","TLE_LINE1":"1 53780U 22111H   22307.91667824 -.00421265  00000-0 -77794-2 0  9995","OBJECT_TYPE":"PAYLOAD","PERIAPSIS":"415.554","CENTER_NAME":"EARTH"},{"PERIOD":"92.911","OBJECT_ID":"2022-111J","FILE":"3644033","CLASSIFICATION_TYPE":"U","MEAN_MOTION":"15.49875244","DECAY_DATE":null,"COUNTRY_CODE":"US","TLE_LINE2":"2 53781  53.2154   1.5819 0001826  42.8625 232.3266 15.49875244  1301","ARG_OF_PERICENTER":"42.8625","OBJECT_NAME":"STARLINK-4462","EPHEMERIS_TYPE":"0","APOAPSIS":"418.334","SITE":"AFETR","INCLINATION":"53.2154","GP_ID":"216864909","MEAN_MOTION_DDOT":"0.0000000000000","LAUNCH_DATE":"2022-09-11","TIME_SYSTEM":"UTC","EPOCH":"2022-11-03T22:00:00.999936","MEAN_ANOMALY":"232.3266","ELEMENT_SET_NO":"999","CENTER_NAME":"EARTH","MEAN_MOTION_DOT":"0.00008172","TLE_LINE1":"1 53781U 22111J   22307.91667824  .00008172  00000-0  15184-3 0  9998","OBJECT_TYPE":"PAYLOAD","PERIAPSIS":"415.852","NORAD_CAT_ID":"53781","SEMIMAJOR_AXIS":"6795.228","RA_OF_ASC_NODE":"1.5819","BSTAR":"0.00015184000000","ECCENTRICITY":"0.00018260","MEAN_ELEMENT_THEORY":"SGP4","REV_AT_EPOCH":"130","RCS_SIZE":"LARGE","REF_FRAME":"TEME"},{"OBJECT_TYPE":"PAYLOAD","TLE_LINE1":"1 53782U 22111K   22307.91667824 -.00078321  00000-0 -13834-2 0  9993","MEAN_MOTION_DOT":"-0.00078321","PERIAPSIS":"415.789","CENTER_NAME":"EARTH","MEAN_ANOMALY":"230.8159","ELEMENT_SET_NO":"999","REF_FRAME":"TEME","MEAN_ELEMENT_THEORY":"SGP4","ECCENTRICITY":"0.00016710","RCS_SIZE":"LARGE","REV_AT_EPOCH":"130","SEMIMAJOR_AXIS":"6795.060","NORAD_CAT_ID":"53782","BSTAR":"-0.00138340000000","RA_OF_ASC_NODE":"1.5938","APOAPSIS":"418.060","SITE":"AFETR","ARG_OF_PERICENTER":"38.3376","OBJECT_NAME":"STARLINK-4679","EPHEMERIS_TYPE":"0","MEAN_MOTION":"15.49932644","COUNTRY_CODE":"US","TLE_LINE2":"2 53782  53.2158   1.5938 0001671  38.3376 230.8159 15.49932644  1301","DECAY_DATE":null,"FILE":"3644033","OBJECT_ID":"2022-111K","PERIOD":"92.907","CLASSIFICATION_TYPE":"U","EPOCH":"2022-11-03T22:00:00.999936","LAUNCH_DATE":"2022-09-11","MEAN_MOTION_DDOT":"0.0000000000000","TIME_SYSTEM":"UTC","GP_ID":"216864455","INCLINATION":"53.2158"},{"EPOCH":"2022-11-03T22:00:00.999936","TIME_SYSTEM":"UTC","MEAN_MOTION_DDOT":"0.0000000000000","LAUNCH_DATE":"2022-09-11","GP_ID":"216863692","INCLINATION":"53.2156","EPHEMERIS_TYPE":"0","OBJECT_NAME":"STARLINK-4536","ARG_OF_PERICENTER":"38.0458","APOAPSIS":"418.241","SITE":"AFETR","DECAY_DATE":null,"COUNTRY_CODE":"US","TLE_LINE2":"2 53783  53.2156   1.5701 0001772  38.0458 242.9721 15.49894204  1306","MEAN_MOTION":"15.49894204","CLASSIFICATION_TYPE":"U","PERIOD":"92.910","OBJECT_ID":"2022-111L","FILE":"3644033","REF_FRAME":"TEME","REV_AT_EPOCH":"130","RCS_SIZE":"LARGE","MEAN_ELEMENT_THEORY":"SGP4","ECCENTRICITY":"0.00017720","BSTAR":"0.00043642000000","RA_OF_ASC_NODE":"1.5701","NORAD_CAT_ID":"53783","SEMIMAJOR_AXIS":"6795.172","PERIAPSIS":"415.833","TLE_LINE1":"1 53783U 22111L   22307.91667824  .00024403  00000-0  43642-3 0  9995","MEAN_MOTION_DOT":"0.00024403","OBJECT_TYPE":"PAYLOAD","CENTER_NAME":"EARTH","ELEMENT_SET_NO":"999","MEAN_ANOMALY":"242.9721"},{"BSTAR":"0.00044339000000","RA_OF_ASC_NODE":"1.5893","NORAD_CAT_ID":"53784","SEMIMAJOR_AXIS":"6795.189","REF_FRAME":"TEME","RCS_SIZE":"LARGE","REV_AT_EPOCH":"130","MEAN_ELEMENT_THEORY":"SGP4","ECCENTRICITY":"0.00021370","ELEMENT_SET_NO":"999","MEAN_ANOMALY":"225.6864","PERIAPSIS":"415.602","OBJECT_TYPE":"PAYLOAD","MEAN_MOTION_DOT":"0.00024796","TLE_LINE1":"1 53784U 22111M   22307.91667824  .00024796  00000-0  44339-3 0  9995","CENTER_NAME":"EARTH","GP_ID":"216863867","INCLINATION":"53.2165","EPOCH":"2022-11-03T22:00:00.999936","TIME_SYSTEM":"UTC","LAUNCH_DATE":"2022-09-11","MEAN_MOTION_DDOT":"0.0000000000000","CLASSIFICATION_TYPE":"U","FILE":"3644033","PERIOD":"92.910","OBJECT_ID":"2022-111M","SITE":"AFETR","APOAPSIS":"418.506","EPHEMERIS_TYPE":"0","OBJECT_NAME":"STARLINK-4687","ARG_OF_PERICENTER":"46.1513","TLE_LINE2":"2 53784  53.2165   1.5893 0002137  46.1513 225.6864 15.49888489  1301","COUNTRY_CODE":"US","DECAY_DATE":null,"MEAN_MOTION":"15.49888489"}];
